{
    "links": {
        "self": "http://www.neowsapp.com/rest/v1/neo/3906628?api_key=iIulBulltgU6a56xZRHN4H3l9WmuAYTsLGpBGhQ2"
    },
    "id": "3906628",
    "neo_reference_id": "3906628",
    "name": "(2019 XV1)",
    "designation": "2019 XV1",
    "nasa_jpl_url": "http://ssd.jpl.nasa.gov/sbdb.cgi?sstr=3906628",
    "absolute_magnitude_h": 23.9,
    "estimated_diameter": {
        "kilometers": {
            "estimated_diameter_min": 0.04411182,
            "estimated_diameter_max": 0.0986370281
        },
        "meters": {
            "estimated_diameter_min": 44.1118199997,
            "estimated_diameter_max": 98.6370281305
        },
        "miles": {
            "estimated_diameter_min": 0.0274098057,
            "estimated_diameter_max": 0.0612901888
        },
        "feet": {
            "estimated_diameter_min": 144.7238235278,
            "estimated_diameter_max": 323.6123073718
        }
    },
    "is_potentially_hazardous_asteroid": false,
    "close_approach_data": [
        {
            "close_approach_date": "2006-12-15",
            "close_approach_date_full": "2006-Dec-15 20:55",
            "epoch_date_close_approach": 1166216100000,
            "relative_velocity": {
                "kilometers_per_second": "16.21076099",
                "kilometers_per_hour": "58358.7395638218",
                "miles_per_hour": "36261.8512584203"
            },
            "miss_distance": {
                "astronomical": "0.2444323841",
                "lunar": "95.0841974149",
                "kilometers": "36566564.020381867",
                "miles": "22721409.2765170846"
            },
            "orbiting_body": "Earth"
        },
        {
            "close_approach_date": "2019-11-07",
            "close_approach_date_full": "2019-Nov-07 12:05",
            "epoch_date_close_approach": 1573128300000,
            "relative_velocity": {
                "kilometers_per_second": "7.9662683559",
                "kilometers_per_hour": "28678.5660812193",
                "miles_per_hour": "17819.7456852999"
            },
            "miss_distance": {
                "astronomical": "0.0408589112",
                "lunar": "15.8941164568",
                "kilometers": "6112406.086039144",
                "miles": "3798073.0228784272"
            },
            "orbiting_body": "Earth"
        },
        {
            "close_approach_date": "2032-08-25",
            "close_approach_date_full": "2032-Aug-25 21:28",
            "epoch_date_close_approach": 1977082080000,
            "relative_velocity": {
                "kilometers_per_second": "15.8256483604",
                "kilometers_per_hour": "56972.3340975462",
                "miles_per_hour": "35400.3928174447"
            },
            "miss_distance": {
                "astronomical": "0.2581220106",
                "lunar": "100.4094621234",
                "kilometers": "38614502.985877422",
                "miles": "23993939.5416635436"
            },
            "orbiting_body": "Earth"
        }
    ],
    "orbital_data": {
        "orbit_id": "6",
        "orbit_determination_date": "2020-01-05 05:54:49",
        "first_observation_date": "2019-12-04",
        "last_observation_date": "2020-01-01",
        "data_arc_in_days": 28,
        "observations_used": 32,
        "orbit_uncertainty": "6",
        "minimum_orbit_intersection": ".00544554",
        "jupiter_tisserand_invariant": "3.804",
        "epoch_osculation": "2459000.5",
        "eccentricity": ".4935488355005503",
        "semi_major_axis": "1.884362602639253",
        "inclination": "5.205641752103773",
        "ascending_node_longitude": "240.720916362378",
        "orbital_period": "944.8114368536287",
        "perihelion_distance": ".9543376344458631",
        "perihelion_argument": "149.8871396393342",
        "aphelion_distance": "2.814387570832642",
        "perihelion_time": "2458783.194556699674",
        "mean_anomaly": "82.79954765221242",
        "mean_motion": ".3810284104930576",
        "equinox": "J2000",
        "orbit_class": {
            "orbit_class_type": "APO",
            "orbit_class_description": "Near-Earth asteroid orbits which cross the Earth’s orbit similar to that of 1862 Apollo",
            "orbit_class_range": "a (semi-major axis) > 1.0 AU; q (perihelion) < 1.017 AU"
        }
    },
    "is_sentry_object": false
}